NORAD_CAT_ID,OBJECT_NAME,OBJECT_TYPE,EPOCH,MEAN_MOTION,ECCENTRICITY,INCLINATION,RA_OF_ASC_NODE,ARG_OF_PERICENTER,MEAN_ANOMALY,BSTAR,MEAN_MOTION_DOT,MEAN_MOTION_DDOT,TLE_LINE0,TLE_LINE1,TLE_LINE2,SEMIMAJOR_AXIS,PERIOD,APOGEE,PERIGEE,DECAYED
53902.0,STARLINK-5021,PAYLOAD,2023-07-30 07:45:59,15.08838787,0.0001164,53.2164,233.7025,92.8159,267.2966,9.0201e-05,1.148e-05,0.0,0 STARLINK-5021,1 53902U 22119S   23211.32360513  .00001148  00000-0  90201-4 0  9996,2 53902  53.2164 233.7025 0001164  92.8159 267.2966 15.08838787 48049,6917.884,95.438,540.554,538.944,0.0
53902.0,STARLINK-5021,PAYLOAD,2023-07-31 23:30:37,15.08840902,0.000122,53.2165,226.2686,88.6053,271.5079,4.8445e-05,4.83e-06,0.0,0 STARLINK-5021,1 53902U 22119S   23212.97960514  .00000483  00000-0  48445-4 0  9999,2 53902  53.2165 226.2686 0001220  88.6053 271.5079 15.08840902 48291,6917.878,95.437,540.587,538.899,0.0
53902.0,STARLINK-5021,PAYLOAD,2023-08-02 00:56:48,15.08837964,0.0001225,53.2163,221.5102,88.7986,271.3147,3.1931e-05,2.2e-06,0.0,0 STARLINK-5021,1 53902U 22119S   23214.03944642  .00000220  00000-0  31931-4 0  9993,2 53902  53.2163 221.5102 0001225  88.7986 271.3147 15.08837964 48457,6917.887,95.438,540.599,538.904,0.0
53902.0,STARLINK-5021,PAYLOAD,2023-08-03 07:09:07,15.08839075,0.0001216,53.2164,215.8611,88.5152,271.598,1.1474e-05,-1.05e-06,0.0,0 STARLINK-5021,1 53902U 22119S   23215.29800751 -.00000105  00000-0  11474-4 0  9997,2 53902  53.2164 215.8611 0001216  88.5152 271.5980 15.08839075 48645,6917.883,95.438,540.589,538.907,0.0
53902.0,STARLINK-5021,PAYLOAD,2023-08-04 00:38:22,15.08833162,0.0001216,53.2166,212.5912,90.1279,269.9852,-5.6793e-07,-2.97e-06,0.0,0 STARLINK-5021,1 53902U 22119S   23216.02665333 -.00000297  00000-0 -56793-6 0  9992,2 53902  53.2166 212.5912 0001216  90.1279 269.9852 15.08833162 48756,6917.901,95.438,540.608,538.925,0.0
53902.0,STARLINK-5021,PAYLOAD,2023-08-05 08:26:05,15.08840237,0.0001252,53.2172,206.6438,97.3144,262.7991,6.3464e-05,7.22e-06,0.0,0 STARLINK-5021,1 53902U 22119S   23217.35145040  .00000722  00000-0  63464-4 0  9999,2 53902  53.2172 206.6438 0001252  97.3144 262.7991 15.08840237 48958,6917.88,95.438,540.611,538.879,0.0
53902.0,STARLINK-5021,PAYLOAD,2023-08-06 16:13:48,15.08834606,0.0001339,53.2178,200.6937,82.5747,277.5397,2.3341e-05,8.4e-07,0.0,0 STARLINK-5021,1 53902U 22119S   23218.67625690  .00000084  00000-0  23341-4 0  9990,2 53902  53.2178 200.6937 0001339  82.5747 277.5397 15.08834606 49153,6917.897,95.438,540.688,538.836,0.0
53902.0,STARLINK-5021,PAYLOAD,2023-08-08 07:58:26,15.08845625,0.0001197,53.2167,193.2607,82.1523,277.9605,0.00016938,2.409e-05,0.0,0 STARLINK-5021,1 53902U 22119S   23220.33224665  .00002409  00000-0  16938-3 0  9999,2 53902  53.2167 193.2607 0001197  82.1523 277.9605 15.08845625 49409,6917.863,95.437,540.556,538.9,0.0
53902.0,STARLINK-5021,PAYLOAD,2023-08-09 07:49:13,15.0883761,0.0001183,53.2167,188.8005,82.5499,277.5627,5.4075e-05,5.73e-06,0.0,0 STARLINK-5021,1 53902U 22119S   23221.32585462  .00000573  00000-0  54075-4 0  9999,2 53902  53.2167 188.8005 0001183  82.5499 277.5627 15.08837610 49553,6917.888,95.438,540.571,538.934,0.0
53902.0,STARLINK-5021,PAYLOAD,2023-08-10 14:01:33,15.08840964,0.0001375,53.2186,183.1501,91.4628,268.6522,-5.7567e-05,-1.204e-05,0.0,0 STARLINK-5021,1 53902U 22119S   23222.58441592 -.00001204  00000-0 -57567-4 0  9996,2 53902  53.2186 183.1501 0001375  91.4628 268.6522 15.08840964 49741,6917.877,95.437,540.694,538.791,0.0
53902.0,STARLINK-5021,PAYLOAD,2023-08-11 13:52:21,15.08831894,0.0001358,53.2164,178.6907,86.1543,273.9604,1.407e-05,-6.4e-07,0.0,0 STARLINK-5021,1 53902U 22119S   23223.57802169 -.00000064  00000-0  14070-4 0  9991,2 53902  53.2164 178.6907 0001358  86.1543 273.9604 15.08831894 49892,6917.905,95.438,540.71,538.831,0.0
53902.0,STARLINK-5021,PAYLOAD,2023-08-12 02:35:25,15.08853171,8.76e-05,53.2179,176.3152,116.0233,244.085,-0.0001902,-3.315e-05,0.0,0 STARLINK-5021,1 53902U 22119S   23224.10793945 -.00003315  00000-0 -19020-3 0  9994,2 53902  53.2179 176.3152 0000876 116.0233 244.0850 15.08853171 49971,6917.84,95.437,540.311,539.099,0.0
53902.0,STARLINK-5021,PAYLOAD,2023-08-13 00:50:50,15.08834586,0.0001176,53.2175,172.1502,98.6337,261.4788,4.4952e-05,4.28e-06,0.0,0 STARLINK-5021,1 53902U 22119S   23225.03530363  .00000428  00000-0  44952-4 0  9993,2 53902  53.2175 172.1502 0001176  98.6337 261.4788 15.08834586 50114,6917.897,95.438,540.575,538.948,0.0
53902.0,STARLINK-5021,PAYLOAD,2023-08-13 05:36:59,15.0884143,0.0001206,53.2175,171.2587,96.2694,263.8436,4.9909e-05,5.07e-06,0.0,0 STARLINK-5021,1 53902U 22119S   23225.23401975  .00000507  00000-0  49909-4 0  9996,2 53902  53.2175 171.2587 0001206  96.2694 263.8436 15.08841430 50146,6917.876,95.437,540.575,538.907,0.0
53902.0,STARLINK-5021,PAYLOAD,2023-08-14 02:17:00,15.08827216,0.0001204,53.2175,167.3933,98.4654,261.6474,0.00021583,3.148e-05,0.0,0 STARLINK-5021,1 53902U 22119S   23226.09514675  .00003148  00000-0  21583-3 0  9994,2 53902  53.2175 167.3933 0001204  98.4654 261.6474 15.08827216 50273,6917.919,95.438,540.617,538.952,0.0
53902.0,STARLINK-5021,PAYLOAD,2023-08-14 05:27:46,15.08844724,0.0001249,53.2173,166.7983,92.455,267.6585,6.5083e-05,7.48e-06,0.0,0 STARLINK-5021,1 53902U 22119S   23226.22761904  .00000748  00000-0  65083-4 0  9995,2 53902  53.2173 166.7983 0001249  92.4550 267.6585 15.08844724 50291,6917.866,95.437,540.595,538.867,0.0
53902.0,STARLINK-5021,PAYLOAD,2023-08-15 02:07:47,15.08839778,0.0001378,53.2171,162.9314,94.1126,266.0023,-1.7236e-05,-5.62e-06,0.0,0 STARLINK-5021,1 53902U 22119S   23227.08874472 -.00000562  00000-0 -17236-4 0  9998,2 53902  53.2171 162.9314 0001378  94.1126 266.0023 15.08839778 50424,6917.881,95.438,540.699,538.793,0.0
53902.0,STARLINK-5021,PAYLOAD,2023-08-15 05:18:33,15.08845055,0.0001313,53.2173,162.3356,100.2972,259.8168,3.7283e-05,3.06e-06,0.0,0 STARLINK-5021,1 53902U 22119S   23227.22121995  .00000306  00000-0  37283-4 0  9997,2 53902  53.2173 162.3356 0001313 100.2972 259.8168 15.08845055 50440,6917.865,95.437,540.638,538.822,0.0
53902.0,STARLINK-5021,PAYLOAD,2023-08-17 01:49:21,15.08846935,0.0001139,53.2172,154.0116,86.0271,274.0852,9.4226e-06,-1.38e-06,0.0,0 STARLINK-5021,1 53902U 22119S   23229.07593929 -.00000138  00000-0  94226-5 0  9997,2 53902  53.2172 154.0116 0001139  86.0271 274.0852 15.08846935 50728,6917.859,95.437,540.512,538.936,0.0
53902.0,STARLINK-5021,PAYLOAD,2023-08-17 17:43:12,15.08837483,0.0001642,53.2163,151.0375,96.8273,263.2906,2.0888e-05,4.4e-07,0.0,0 STARLINK-5021,1 53902U 22119S   23229.73834443  .00000044  00000-0  20888-4 0  9996,2 53902  53.2163 151.0375 0001642  96.8273 263.2906 15.08837483 50821,6917.888,95.438,540.889,538.617,0.0
53902.0,STARLINK-5021,PAYLOAD,2023-08-18 03:15:31,15.08844147,0.0001372,53.2183,149.2549,92.7995,267.3154,4.3491e-05,4.04e-06,0.0,0 STARLINK-5021,1 53902U 22119S   23230.13577957  .00000404  00000-0  43491-4 0  9991,2 53902  53.2183 149.2549 0001372  92.7995 267.3154 15.08844147 50882,6917.868,95.437,540.682,538.784,0.0
53902.0,STARLINK-5021,PAYLOAD,2023-08-19 01:30:56,15.08834928,0.000157,53.2166,145.0915,97.4644,262.6526,-3.3446e-05,-8.2e-06,0.0,0 STARLINK-5021,1 53902U 22119S   23231.06314969 -.00000820  00000-0 -33446-4 0  9999,2 53902  53.2166 145.0915 0001570  97.4644 262.6526 15.08834928 51021,6917.896,95.438,540.847,538.675,0.0
53902.0,STARLINK-5021,PAYLOAD,2023-08-20 02:57:06,15.08837761,0.0001547,53.2173,140.3334,97.9696,262.1472,-3.9249e-05,-9.13e-06,0.0,0 STARLINK-5021,1 53902U 22119S   23232.12299252 -.00000913  00000-0 -39249-4 0  9994,2 53902  53.2173 140.3334 0001547  97.9696 262.1472 15.08837761 51188,6917.887,95.438,540.822,538.682,0.0
53902.0,STARLINK-5021,PAYLOAD,2023-08-21 01:12:29,15.08870449,0.0001185,53.2174,136.1706,86.3387,273.7741,-0.00018619,-3.252e-05,0.0,0 STARLINK-5021,1 53902U 22119S   23233.05033812 -.00003252  00000-0 -18619-3 0  9991,2 53902  53.2174 136.1706 0001185  86.3387 273.7741 15.08870449 51325,6917.787,95.436,540.472,538.833,0.0
53902.0,STARLINK-5021,PAYLOAD,2023-08-21 02:47:52,15.08845385,0.0001299,53.2172,135.8726,86.2059,273.9082,0.00018364,2.636e-05,0.0,0 STARLINK-5021,1 53902U 22119S   23233.11658334  .00002636  00000-0  18364-3 0  9990,2 53902  53.2172 135.8726 0001299  86.2059 273.9082 15.08845385 51334,6917.864,95.437,540.628,538.83,0.0
53902.0,STARLINK-5021,PAYLOAD,2023-08-22 02:38:40,15.08845098,0.0001528,53.2185,131.4122,80.5175,279.5989,5.4105e-05,5.73e-06,0.0,0 STARLINK-5021,1 53902U 22119S   23234.11018942  .00000573  00000-0  54105-4 0  9998,2 53902  53.2185 131.4122 0001528  80.5175 279.5989 15.08845098 51486,6917.865,95.437,540.787,538.673,0.0
53902.0,STARLINK-5021,PAYLOAD,2023-08-24 02:20:14,15.08844152,0.0001343,53.2179,122.4907,90.0699,270.0447,2.3185e-05,8.1e-07,0.0,0 STARLINK-5021,1 53902U 22119S   23236.09738978  .00000081  00000-0  23185-4 0  9993,2 53902  53.2179 122.4907 0001343  90.0699 270.0447 15.08844152 52208,6917.868,95.437,540.662,538.804,0.0
53902.0,STARLINK-5021,PAYLOAD,2023-08-25 02:11:01,15.08830822,0.0001489,53.2182,118.0298,91.1695,268.9468,0.00022259,3.255e-05,0.0,0 STARLINK-5021,1 53902U 22119S   23237.09099295  .00003255  00000-0  22259-3 0  9992,2 53902  53.2182 118.0298 0001489  91.1695 268.9468 15.08830822 51932,6917.908,95.438,540.804,538.743,0.0
53902.0,STARLINK-5021,PAYLOAD,2023-08-25 19:40:16,15.08833838,0.0001455,53.2187,114.7596,87.4182,272.6977,3.2067e-05,2.22e-06,0.0,0 STARLINK-5021,1 53902U 22119S   23237.81963832  .00000222  00000-0  32067-4 0  9999,2 53902  53.2187 114.7596 0001455  87.4182 272.6977 15.08833838 52469,6917.899,95.438,540.771,538.758,0.0
53902.0,STARLINK-5021,PAYLOAD,2023-08-26 02:01:49,15.08837845,0.000152,53.2185,113.5701,83.6986,276.418,5.7623e-05,6.29e-06,0.0,0 STARLINK-5021,1 53902U 22119S   23238.08459555  .00000629  00000-0  57623-4 0  9997,2 53902  53.2185 113.5701 0001520  83.6986 276.4180 15.08837845 52500,6917.887,95.438,540.803,538.7,0.0
